STARLINK-1232
1 15213C 20012AM  21326.16449573 -.00017532  00000-0 -11767-2 0  3261
2 15213  53.0539 228.0168 0001472  48.8114  91.4623 15.06350493    11
